STARLINK-1554           
1 46055U 20055AE  26068.55436788  .00011659  00000+0  40484-3 0  9994
2 46055  53.1583 114.6651 0001418  88.5920 271.5243 15.30224882309053
TEVEL2-8                
1 63239U 25052AF  26068.66815442  .00019130  00000+0  69304-3 0  9993
2 63239  97.4055 324.2923 0008031 124.9191 235.2804 15.28392908 54807
